HST                     
1 20580U 90037B   23332.21406715  .00008132  00000+0  41391-3 0  9997
2 20580  28.4690 255.3124 0002620 358.7440 150.9550 15.15008428646341
POLAR                   
1 23802U 96013A   23326.72511605  .00000181  00000+0  00000+0 0  9995
2 23802  78.9822 236.6064 5795789 240.8761  49.6833  1.29847077132686
SWAS                    
1 25560U 98071A   23332.59643152  .00006912  00000+0  58756-3 0  9992
2 25560  69.8994  89.9510 0009818 251.7682 108.2408 14.98239407357177
CXO                     
1 25867U 99040B   23331.89508405  .00000465  00000+0  00000+0 0  9994
2 25867  37.7596 175.9185 9034086 279.4962 359.7949  0.37810293 13803
XMM-NEWTON              
1 25989U 99066A   23332.23637306 -.00000047  00000+0  00000+0 0  9996
2 25989  68.5425 295.8850 5354646  80.1450  40.7091  0.50133872 18349
TERRA                   
1 25994U 99068A   23332.63257281  .00001141  00000+0  25007-3 0  9991
2 25994  98.0767  36.8085 0000545 273.0038 244.4814 14.59459310273645
CLUSTER II-FM7 (SAMBA)  
1 26410U 00041A   23333.06861624  .00000684  00000+0  00000+0 0  9991
2 26410 137.3980 354.4571 6955253 208.9652   0.4166  0.44247931 27912
CLUSTER II-FM6 (SALSA)  
1 26411U 00041B   23333.06892275  .00001541  00000+0  00000+0 0  9991
2 26411 144.0773   8.1400 8603935 222.2685   0.4769  0.44233560 16220
CLUSTER II-FM5 (RUMBA)  
1 26463U 00045A   23333.06570617  .00001498  00000+0  00000+0 0  9996
2 26463 146.7392   6.7565 8105029 221.6439   0.3908  0.44230014 16090
CLUSTER II-FM8 (TANGO)  
1 26464U 00045B   23333.06758528  .00000684  00000+0  00000+0 0  9992
2 26464 137.3886 354.4394 6955639 208.9567   0.2891  0.44219466 16173
ODIN                    
1 26702U 01007A   23332.59801862  .00011779  00000+0  58944-3 0  9994
2 26702  97.4949 344.3133 0006640 261.8775  98.1705 15.17546995246288
TIMED                   
1 26998U 01055B   23332.33744242  .00002920  00000+0  30332-3 0  9993
2 26998  74.0715 304.7649 0001572 310.1291  49.9753 14.90419643191745
INTEGRAL                
1 27540U 02048A   23332.16801361 -.00000025  00000+0  00000+0 0  9997
2 27540  86.7296  30.5311 8709620 287.5382  54.8320  0.37583518 23139
CORIOLIS                
1 27640U 03001A   23332.55138465  .00000334  00000+0  17962-3 0  9990
2 27640  98.7154 338.0102 0014484  19.7840 340.3895 14.19352299 82032
SORCE                   
1 27651U 03004A   23332.57730831  .00005484  00000+0  52568-3 0  9994
2 27651  39.9921 136.6279 0020671 249.6796 110.1773 14.93292449132080
MOST                    
1 27843U 03031D   23332.59343625  .00000236  00000+0  12930-3 0  9999
2 27843  98.7080 337.4794 0010979  64.4857 295.7454 14.20867030 58397
SCISAT 1                
1 27858U 03036A   23332.14579610  .00001603  00000+0  22365-3 0  9998
2 27858  73.9324 219.5001 0007025 144.6961 215.4681 14.78618345 93548
SWIFT                   
1 28485U 04047A   23331.92653145  .00012299  00000+0  63108-3 0  9992
2 28485  20.5545 183.0735 0009191 190.6686 169.3555 15.13962161 43436
CLOUDSAT                
1 29107U 06016A   23332.51526078  .00000971  00000+0  19252-3 0  9997
2 29107  98.3959 305.2846 0004329  87.6375 272.5323 14.64525329936425
CALIPSO                 
1 29108U 06016B   23332.57138776  .00002895  00000+0  55200-3 0  9998
2 29108  98.3965 304.8709 0001347  83.3605 276.7750 14.64800254936425
HINODE (SOLAR-B)        
1 29479U 06041A   23332.60558238  .00001620  00000+0  30471-3 0  9998
2 29479  98.0998 345.7462 0018129   2.0961 358.0316 14.65861730918247
SJ-6C                   
1 29505U 06046A   23332.61193576  .00007390  00000+0  58912-3 0  9994
2 29505  97.7350 355.3931 0008374  85.8365 274.3815 15.00600759931770
SJ-6D                   
1 29506U 06046B   23332.61726310  .00004072  00000+0  36666-3 0  9999
2 29506  97.7579 354.4000 0000602 186.2191 173.9023 14.96164029931178
AGILE                   
1 31135U 07013A   23331.61103522  .00124555  00000+0  81003-3 0  9992
2 31135   2.4677 315.6725 0005069 258.9503 100.9982 15.73874203559000
FGRST (GLAST)           
1 33053U 08029A   23332.61606000  .00004090  00000+0  19559-3 0  9999
2 33053  25.5808 151.8062 0011126 202.0072 157.9987 15.15221187853950
WISE                    
1 36119U 09071A   23332.57330179  .00030783  00000+0  57053-3 0  9998
2 36119  97.1754   3.7927 0002311 130.9379 229.2072 15.48929801776902
SDO                     
1 36395U 10005A   23332.36389961 -.00000067  00000+0  00000+0 0  9992
2 36395  32.7110 100.7610 0002332 194.0408 161.3906  1.00271494 50710
CRYOSAT 2               
1 36508U 10013A   23332.55866468  .00000530  00000+0  13093-3 0  9994
2 36508  92.0342  52.1566 0001429 210.8753 149.2370 14.51901977722901
X-SAT                   
1 37389U 11015C   23332.55862270  .00000207  00000+0  10672-3 0  9993
2 37389  98.2964 342.6532 0013824 194.8715 165.2061 14.24596420655002
GCOM-W1 (SHIZUKU)       
1 38337U 12025A   23332.47282889  .00001571  00000+0  35855-3 0  9997
2 38337  98.2186 270.3601 0001699  57.4584  58.4982 14.57133968613358
NUSTAR                  
1 38358U 12031A   23330.36530460  .00009755  00000+0  82875-3 0  9990
2 38358   6.0301 119.3421 0009145  36.4000 323.6751 14.93644505623630
NEOSSAT                 
1 39089U 13009D   23332.54550970  .00000483  00000+0  18436-3 0  9999
2 39089  98.4025 160.2135 0011848 138.3845 221.8245 14.34993398563080
BRITE-AUSTRIA           
1 39091U 13009F   23332.49412655  .00000517  00000+0  19396-3 0  9997
2 39091  98.3841 160.5932 0011121 136.9503 223.2554 14.35615469563322
IRIS                    
1 39197U 13033A   23332.49292021  .00002967  00000+0  38721-3 0  9998
2 39197  97.9637 159.2898 0027667 114.5854 245.8246 14.81016080562227
HISAKI (SPRINT-A)       
1 39253U 13049A   23332.26773859  .00000256  00000+0  26174-3 0  9994
2 39253  29.7200 277.2848 0136842  22.7009 337.9545 13.55356716504890
CASSIOPE                
1 39265U 13055A   23332.57866747  .00042024  00000+0  96058-3 0  9994
2 39265  80.9600  58.4005 0541579 168.5891 192.8196 14.59013888528885
STSAT-3                 
1 39422U 13066G   23332.56068373  .00004757  00000+0  45822-3 0  9993
2 39422  97.5004 315.8575 0020341 318.6949  41.2731 14.93236941544712
SWARM B                 
1 39451U 13067A   23332.55948310  .00006254  00000+0  30234-3 0  9998
2 39451  87.7483 262.6942 0003338  89.3355 270.8271 15.18443239541380
SWARM A                 
1 39452U 13067B   23332.59697889  .00008662  00000+0  30442-3 0  9991
2 39452  87.3477  35.3937 0003293 101.5464 258.6155 15.29220804562928
SWARM C                 
1 39453U 13067C   23332.59688278  .00008486  00000+0  29823-3 0  9999
2 39453  87.3475  33.9911 0003292 101.7441 258.4178 15.29219472562886
BRITE-CA1 (TORONTO)     
1 40020U 14033L   23332.32984828  .00001755  00000+0  29452-3 0  9996
2 40020  97.8493 112.0770 0084797  17.3924 343.0155 14.68565552505230
OCO 2                   
1 40059U 14035A   23332.58400544  .00001368  00000+0  31362-3 0  9999
2 40059  98.2185 271.2084 0001967  75.4561 284.6856 14.57121032500389
BRITE-PL2 (HEWELIUSZ)   
1 40119U 14049B   23332.50044856  .00003588  00000+0  40106-3 0  9995
2 40119  97.8845  68.3717 0015280 311.1659  48.8238 14.87499108502586
RESURS P2               
1 40360U 14087A   23332.59357658  .00022277  00000+0  41214-3 0  9998
2 40360  97.1717  54.4196 0006045 338.4320  21.6676 15.49027057498238
MMS 1                   
1 40482U 15011A   23332.58334491 -.00000748  00000+0  00000+0 0  9994
2 40482  35.4557  33.0117 9155238 126.9722  43.5650  0.28445153  1372
MMS 2                   
1 40483U 15011B   23332.58334491 -.00000748  00000+0  00000+0 0  9995
2 40483  35.4642  33.0195 9154232 126.9678  43.5723  0.28446404  1356
MMS 3                   
1 40484U 15011C   23332.58334491 -.00000748  00000+0  00000+0 0  9996
2 40484  35.4576  33.0089 9153260 126.9751  43.5735  0.28446303  1358
MMS 4                   
1 40485U 15011D   23332.58334491 -.00000748  00000+0  00000+0 0  9997
2 40485  35.4596  33.0159 9154422 126.9594  43.5960  0.28445145  1358
ASTROSAT                
1 40930U 15052A   23332.36828679  .00003002  00000+0  31767-3 0  9992
2 40930   5.9978   2.6057 0007952  87.4533 272.6505 14.78140710441547
DAMPE                   
1 41173U 15078A   23332.51670626  .00002443  00000+0  97013-4 0  9999
2 41173  97.4178 322.1988 0014468 129.7063 230.5453 15.26210318442212
PISAT                   
1 41784U 16059B   23332.60294296  .00002120  00000+0  40005-3 0  9992
2 41784  97.8535 358.7330 0029674 294.8488  64.9631 14.65184920383130
HXMT (HUIYAN)           
1 42758U 17034A   23332.41274630  .00011481  00000+0  62583-3 0  9992
2 42758  43.0158 312.2465 0003436 320.6754  39.3843 15.14378637356239
FLYING LAPTOP           
1 42831U 17042G   23332.58070656  .00003228  00000+0  30840-3 0  9994
2 42831  97.3806 160.4371 0014103  38.8111 321.4120 14.93838874347020
ZHANGZHENG-1 (CSES)     
1 43194U 18015C   23332.55384545  .00020449  00000+0  92330-3 0  9996
2 43194  97.5857 109.6448 0016438 153.0302 207.1791 15.20888464323047
SALSAT                  
1 46495U 20068K   23332.41073546  .00008940  00000+0  55563-3 0  9994
2 46495  97.7920 282.5361 0012983 284.4659  75.5128 15.09829633173838
IXPE                    
1 49954U 21121A   23332.35827397  .00007870  00000+0  61842-3 0  9990
2 49954   0.2298  87.6162 0009966 168.7329 103.5400 14.95628476107610
